[{"OBJECT_NAME":"YAOGAN-28","OBJECT_ID":"2015-064A","EPOCH":"2026-03-06T06:59:14.541792","MEAN_MOTION":15.25926373,"ECCENTRICITY":0.00109252,"INCLINATION":97.2898,"RA_OF_ASC_NODE":205.8576,"ARG_OF_PERICENTER":188.4331,"MEAN_ANOMALY":171.6726,"EPHEMERIS_TYPE":0,"CLASSIFICATION_TYPE":"U","NORAD_CAT_ID":41026,"ELEMENT_SET_NO":999,"REV_AT_EPOCH":57498,"BSTAR":0.00034247286,"MEAN_MOTION_DOT":8.732e-5,"MEAN_MOTION_DDOT":0},{"OBJECT_NAME":"YAOGAN-29","OBJECT_ID":"2015-069A","EPOCH":"2026-03-06T06:51:43.814592","MEAN_MOTION":14.82990467,"ECCENTRICITY":0.00020994,"INCLINATION":98.0142,"RA_OF_ASC_NODE":93.7059,"ARG_OF_PERICENTER":41.2303,"MEAN_ANOMALY":318.9069,"EPHEMERIS_TYPE":0,"CLASSIFICATION_TYPE":"U","NORAD_CAT_ID":41038,"ELEMENT_SET_NO":999,"REV_AT_EPOCH":55537,"BSTAR":8.5381841e-5,"MEAN_MOTION_DOT":6.39e-6,"MEAN_MOTION_DDOT":0},{"OBJECT_NAME":"KENT RIDGE 1","OBJECT_ID":"2015-077B","EPOCH":"2026-03-05T22:26:49.185600","MEAN_MOTION":15.22415937,"ECCENTRICITY":0.00084398,"INCLINATION":14.9803,"RA_OF_ASC_NODE":313.4769,"ARG_OF_PERICENTER":223.714,"MEAN_ANOMALY":136.2514,"EPHEMERIS_TYPE":0,"CLASSIFICATION_TYPE":"U","NORAD_CAT_ID":41167,"ELEMENT_SET_NO":999,"REV_AT_EPOCH":56533,"BSTAR":0.0002252611,"MEAN_MOTION_DOT":6.134e-5,"MEAN_MOTION_DDOT":0},{"OBJECT_NAME":"GAOFEN-4","OBJECT_ID":"2015-083A","EPOCH":"2026-03-06T00:46:06.041568","MEAN_MOTION":1.00266229,"ECCENTRICITY":0.00039063,"INCLINATION":0.3844,"RA_OF_ASC_NODE":83.8409,"ARG_OF_PERICENTER":90.3745,"MEAN_ANOMALY":106.7464,"EPHEMERIS_TYPE":0,"CLASSIFICATION_TYPE":"U","NORAD_CAT_ID":41194,"ELEMENT_SET_NO":999,"REV_AT_EPOCH":3749,"BSTAR":0,"MEAN_MOTION_DOT":-3.4e-6,"MEAN_MOTION_DDOT":0},{"OBJECT_NAME":"JASON-3","OBJECT_ID":"2016-002A","EPOCH":"2026-03-06T05:53:18.326400","MEAN_MOTION":12.87625642,"ECCENTRICITY":0.00078092,"INCLINATION":66.0448,"RA_OF_ASC_NODE":342.2622,"ARG_OF_PERICENTER":276.9233,"MEAN_ANOMALY":83.0897,"EPHEMERIS_TYPE":0,"CLASSIFICATION_TYPE":"U","NORAD_CAT_ID":41240,"ELEMENT_SET_NO":999,"REV_AT_EPOCH":47399,"BSTAR":0.00016885724,"MEAN_MOTION_DOT":-1.9e-7,"MEAN_MOTION_DDOT":0},{"OBJECT_NAME":"SENTINEL-3A","OBJECT_ID":"2016-011A","EPOCH":"2026-03-06T06:22:49.598976","MEAN_MOTION":14.26740326,"ECCENTRICITY":0.00012391,"INCLINATION":98.6235,"RA_OF_ASC_NODE":134.1024,"ARG_OF_PERICENTER":100.3007,"MEAN_ANOMALY":259.8314,"EPHEMERIS_TYPE":0,"CLASSIFICATION_TYPE":"U","NORAD_CAT_ID":41335,"ELEMENT_SET_NO":999,"REV_AT_EPOCH":52338,"BSTAR":8.972594e-5,"MEAN_MOTION_DOT":1.74e-6,"MEAN_MOTION_DDOT":0},{"OBJECT_NAME":"ZIYUAN 3-02 (ZY 3-02)","OBJECT_ID":"2016-033A","EPOCH":"2026-03-06T07:41:17.721600","MEAN_MOTION":15.21492027,"ECCENTRICITY":0.00111789,"INCLINATION":97.3904,"RA_OF_ASC_NODE":143.0361,"ARG_OF_PERICENTER":312.263,"MEAN_ANOMALY":47.7657,"EPHEMERIS_TYPE":0,"CLASSIFICATION_TYPE":"U","NORAD_CAT_ID":41556,"ELEMENT_SET_NO":999,"REV_AT_EPOCH":54234,"BSTAR":0.00029447635,"MEAN_MOTION_DOT":6.566e-5,"MEAN_MOTION_DDOT":0},{"OBJECT_NAME":"CARTOSAT-2C","OBJECT_ID":"2016-040A","EPOCH":"2026-03-06T07:29:48.160608","MEAN_MOTION":15.19180803,"ECCENTRICITY":0.00101416,"INCLINATION":97.461,"RA_OF_ASC_NODE":126.6378,"ARG_OF_PERICENTER":131.6255,"MEAN_ANOMALY":228.5849,"EPHEMERIS_TYPE":0,"CLASSIFICATION_TYPE":"U","NORAD_CAT_ID":41599,"ELEMENT_SET_NO":999,"REV_AT_EPOCH":53809,"BSTAR":0.0001957722,"MEAN_MOTION_DOT":4.054e-5,"MEAN_MOTION_DDOT":0},{"OBJECT_NAME":"SKYSAT-C1","OBJECT_ID":"2016-040C","EPOCH":"2026-03-06T01:10:34.277376","MEAN_MOTION":15.34420377,"ECCENTRICITY":0.00038102,"INCLINATION":96.9703,"RA_OF_ASC_NODE":102.417,"ARG_OF_PERICENTER":60.9373,"MEAN_ANOMALY":299.2252,"EPHEMERIS_TYPE":0,"CLASSIFICATION_TYPE":"U","NORAD_CAT_ID":41601,"ELEMENT_SET_NO":999,"REV_AT_EPOCH":54204,"BSTAR":0.00032341937,"MEAN_MOTION_DOT":0.00010713,"MEAN_MOTION_DDOT":0},{"OBJECT_NAME":"LAPAN-A3","OBJECT_ID":"2016-040E","EPOCH":"2026-03-06T07:16:06.121632","MEAN_MOTION":15.32343565,"ECCENTRICITY":0.00114495,"INCLINATION":97.148,"RA_OF_ASC_NODE":64.8936,"ARG_OF_PERICENTER":33.9871,"MEAN_ANOMALY":326.2102,"EPHEMERIS_TYPE":0,"CLASSIFICATION_TYPE":"U","NORAD_CAT_ID":41603,"ELEMENT_SET_NO":999,"REV_AT_EPOCH":53905,"BSTAR":0.00017452327,"MEAN_MOTION_DOT":5.385e-5,"MEAN_MOTION_DDOT":0},{"OBJECT_NAME":"GAOFEN-3","OBJECT_ID":"2016-049A","EPOCH":"2026-03-06T08:02:53.890080","MEAN_MOTION":14.42216283,"ECCENTRICITY":0.000165,"INCLINATION":98.4048,"RA_OF_ASC_NODE":74.658,"ARG_OF_PERICENTER":92.8802,"MEAN_ANOMALY":267.2577,"EPHEMERIS_TYPE":0,"CLASSIFICATION_TYPE":"U","NORAD_CAT_ID":41727,"ELEMENT_SET_NO":999,"REV_AT_EPOCH":50382,"BSTAR":0.00012471118,"MEAN_MOTION_DOT":3.67e-6,"MEAN_MOTION_DDOT":0},{"OBJECT_NAME":"SKYSAT-C4","OBJECT_ID":"2016-058B","EPOCH":"2026-03-06T06:54:56.141856","MEAN_MOTION":15.45228474,"ECCENTRICITY":8.242e-5,"INCLINATION":96.929,"RA_OF_ASC_NODE":91.5462,"ARG_OF_PERICENTER":97.1935,"MEAN_ANOMALY":262.9409,"EPHEMERIS_TYPE":0,"CLASSIFICATION_TYPE":"U","NORAD_CAT_ID":41771,"ELEMENT_SET_NO":999,"REV_AT_EPOCH":52956,"BSTAR":0.00040319183,"MEAN_MOTION_DOT":0.00019095,"MEAN_MOTION_DDOT":0},{"OBJECT_NAME":"SKYSAT-C5","OBJECT_ID":"2016-058C","EPOCH":"2026-03-06T02:35:28.618368","MEAN_MOTION":15.34205822,"ECCENTRICITY":0.00018135,"INCLINATION":97.0616,"RA_OF_ASC_NODE":110.3271,"ARG_OF_PERICENTER":85.2911,"MEAN_ANOMALY":274.854,"EPHEMERIS_TYPE":0,"CLASSIFICATION_TYPE":"U","NORAD_CAT_ID":41772,"ELEMENT_SET_NO":999,"REV_AT_EPOCH":52794,"BSTAR":0.00028173311,"MEAN_MOTION_DOT":9.256e-5,"MEAN_MOTION_DDOT":0},{"OBJECT_NAME":"SKYSAT-C2","OBJECT_ID":"2016-058D","EPOCH":"2026-03-06T03:12:32.532768","MEAN_MOTION":15.39584288,"ECCENTRICITY":0.00051868,"INCLINATION":97.028,"RA_OF_ASC_NODE":91.2252,"ARG_OF_PERICENTER":75.8158,"MEAN_ANOMALY":284.3664,"EPHEMERIS_TYPE":0,"CLASSIFICATION_TYPE":"U","NORAD_CAT_ID":41773,"ELEMENT_SET_NO":999,"REV_AT_EPOCH":52918,"BSTAR":0.00033787691,"MEAN_MOTION_DOT":0.00013232,"MEAN_MOTION_DDOT":0},{"OBJECT_NAME":"SKYSAT-C3","OBJECT_ID":"2016-058E","EPOCH":"2026-03-06T06:17:01.713696","MEAN_MOTION":15.48133107,"ECCENTRICITY":0.00016162,"INCLINATION":96.9176,"RA_OF_ASC_NODE":100.2785,"ARG_OF_PERICENTER":106.4419,"MEAN_ANOMALY":253.701,"EPHEMERIS_TYPE":0,"CLASSIFICATION_TYPE":"U","NORAD_CAT_ID":41774,"ELEMENT_SET_NO":999,"REV_AT_EPOCH":53016,"BSTAR":0.00045033047,"MEAN_MOTION_DOT":0.00023595,"MEAN_MOTION_DDOT":0},{"OBJECT_NAME":"ALSAT-1B","OBJECT_ID":"2016-059C","EPOCH":"2026-03-06T08:10:43.531968","MEAN_MOTION":14.72184537,"ECCENTRICITY":0.00088555,"INCLINATION":97.7799,"RA_OF_ASC_NODE":78.5289,"ARG_OF_PERICENTER":188.3413,"MEAN_ANOMALY":171.7649,"EPHEMERIS_TYPE":0,"CLASSIFICATION_TYPE":"U","NORAD_CAT_ID":41785,"ELEMENT_SET_NO":999,"REV_AT_EPOCH":50544,"BSTAR":0.00014340701,"MEAN_MOTION_DOT":8.57e-6,"MEAN_MOTION_DDOT":0},{"OBJECT_NAME":"PATHFINDER 1","OBJECT_ID":"2016-059E","EPOCH":"2026-03-06T06:04:34.150656","MEAN_MOTION":14.67511113,"ECCENTRICITY":0.00286505,"INCLINATION":97.8176,"RA_OF_ASC_NODE":69.1831,"ARG_OF_PERICENTER":171.6406,"MEAN_ANOMALY":188.5283,"EPHEMERIS_TYPE":0,"CLASSIFICATION_TYPE":"U","NORAD_CAT_ID":41787,"ELEMENT_SET_NO":999,"REV_AT_EPOCH":50461,"BSTAR":0.00019903157,"MEAN_MOTION_DOT":1.088e-5,"MEAN_MOTION_DDOT":0}]
