YAOGAN-28               
1 41026U 15064A   26065.29114053  .00008732  00000+0  34247-3 0  9995
2 41026  97.2898 205.8576 0010925 188.4331 171.6726 15.25926373574982
YAOGAN-29               
1 41038U 15069A   26065.28592378  .00000639  00000+0  85382-4 0  9997
2 41038  98.0142  93.7059 0002099  41.2303 318.9069 14.82990467555379
KENT RIDGE 1            
1 41167U 15077B   26064.93529150  .00006134  00000+0  22526-3 0  9994
2 41167  14.9803 313.4769 0008439 223.7140 136.2514 15.22415937565335
GAOFEN-4                
1 41194U 15083A   26065.03201437 -.00000340  00000+0  00000+0 0  9991
2 41194   0.3844  83.8409 0003906  90.3745 106.7464  1.00266229 37497
JASON-3                 
1 41240U 16002A   26065.24535100 -.00000019  00000+0  16886-3 0  9991
2 41240  66.0448 342.2622 0007809 276.9233  83.0897 12.87625642473998
SENTINEL-3A             
1 41335U 16011A   26065.26585184  .00000174  00000+0  89726-4 0  9990
2 41335  98.6235 134.1024 0001239 100.3007 259.8314 14.26740326523380
ZIYUAN 3-02 (ZY 3-02)   
1 41556U 16033A   26065.32034400  .00006566  00000+0  29448-3 0  9991
2 41556  97.3904 143.0361 0011178 312.2630  47.7657 15.21492027542345
CARTOSAT-2C             
1 41599U 16040A   26065.31236297  .00004054  00000+0  19577-3 0  9995
2 41599  97.4610 126.6378 0010141 131.6255 228.5849 15.19180803538099
SKYSAT-C1               
1 41601U 16040C   26065.04900784  .00010713  00000+0  32342-3 0  9992
2 41601  96.9703 102.4170 0003810  60.9373 299.2252 15.34420377542045
LAPAN-A3                
1 41603U 16040E   26065.30284863  .00005385  00000+0  17452-3 0  9990
2 41603  97.1480  64.8936 0011449  33.9871 326.2102 15.32343565539056
GAOFEN-3                
1 41727U 16049A   26065.33534595  .00000367  00000+0  12471-3 0  9990
2 41727  98.4048  74.6580 0001650  92.8802 267.2577 14.42216283503824
SKYSAT-C4               
1 41771U 16058B   26065.28814979  .00019095  00000+0  40319-3 0  9990
2 41771  96.9290  91.5462 0000824  97.1935 262.9409 15.45228474529563
SKYSAT-C5               
1 41772U 16058C   26065.10797012  .00009256  00000+0  28173-3 0  9992
2 41772  97.0616 110.3271 0001813  85.2911 274.8540 15.34205822527945
SKYSAT-C2               
1 41773U 16058D   26065.13370987  .00013232  00000+0  33788-3 0  9991
2 41773  97.0280  91.2252 0005186  75.8158 284.3664 15.39584288529186
SKYSAT-C3               
1 41774U 16058E   26065.26182539  .00023595  00000+0  45033-3 0  9999
2 41774  96.9176 100.2785 0001616 106.4419 253.7010 15.48133107530161
ALSAT-1B                
1 41785U 16059C   26065.34078162  .00000857  00000+0  14341-3 0  9991
2 41785  97.7799  78.5289 0008855 188.3413 171.7649 14.72184537505443
PATHFINDER 1            
1 41787U 16059E   26065.25317304  .00001088  00000+0  19903-3 0  9993
2 41787  97.8176  69.1831 0028650 171.6406 188.5283 14.67511113504612
